ONEWEB-0387             
1 49313U 21090AL  23070.67435979 -.00001167  00000+0 -29029-2 0  9994
2 49313  87.9346 152.0198 0001535  91.8747 268.2562 13.20773616 72270
ONEWEB-0388             
1 49314U 21090AM  23070.67137850  .00000061  00000+0  12047-3 0  9995
2 49314  87.9345 182.2815 0001615 104.1344 255.9968 13.19727408 68994
ONEWEB-0389             
1 50469U 21132A   23070.55717131  .00000008  00000+0 -11410-4 0  9994
2 50469  87.9085 242.9487 0002270  89.2482 270.8909 13.17543096 60890
ONEWEB-0390             
1 50470U 21132B   23070.55930916  .00000078  00000+0  16894-3 0  9990
2 50470  87.9085 242.9515 0002190  96.5736 263.5645 13.17506070 60895
ONEWEB-0391             
1 50471U 21132C   23070.48548926  .00000003  00000+0 -26341-4 0  9997
2 50471  87.9087 242.9375 0001945  91.2665 268.8689 13.17482385 60889
ONEWEB-0392             
1 50472U 21132D   23070.89607886 -.00000072  00000+0 -21713-3 0  9998
2 50472  87.9099 242.8881 0001839  94.1648 265.9694 13.18131761 60973
ONEWEB-0393             
1 50473U 21132E   23070.52616449 -.00000592  00000+0 -15508-2 0  9995
2 50473  87.9085 242.9429 0001944 102.6022 257.5327 13.17992269 60917
ONEWEB-0394             
1 50474U 21132F   23070.40871326  .00000120  00000+0  27093-3 0  9998
2 50474  87.9172 212.6550 0001680  97.6712 262.4611 13.18685834 64261
ONEWEB-0395             
1 50475U 21132G   23070.57968614  .00000562  00000+0  15498-2 0  9999
2 50475  87.8807 258.2190 0001860  94.6245 265.5095 13.11416636 59270
ONEWEB-0396             
1 50476U 21132H   23070.47827983  .00000063  00000+0  12633-3 0  9997
2 50476  87.9112 212.6247 0001706  91.4369 268.6959 13.18685066 64315
ONEWEB-0397             
1 50477U 21132J   23070.41713323  .00000202  00000+0  48058-3 0  9999
2 50477  87.9170 212.6676 0001724  91.9284 268.2045 13.18683618 64286
ONEWEB-0398             
1 50478U 21132K   23070.54712104 -.00000497  00000+0 -14393-2 0  9992
2 50478  87.8813 258.2167 0002168 102.4706 257.6665 13.11415225 59162
ONEWEB-0399             
1 50479U 21132L   23070.53366355 -.00000237  00000+0 -70558-3 0  9993
2 50479  87.8806 258.2315 0001255  81.2427 278.8843 13.11414700 59159
ONEWEB-0400             
1 50480U 21132M   23070.39606626  .00000041  00000+0  71087-4 0  9997
2 50480  87.9242 212.6593 0001744 109.6046 250.5274 13.18686485 64275
ONEWEB-0401             
1 50481U 21132N   23070.43822955  .00000070  00000+0  14434-3 0  9992
2 50481  87.9134 212.6376 0001559 103.5979 256.5327 13.18685808 64281
ONEWEB-0402             
1 50482U 21132P   23070.48036190  .00000099  00000+0  21962-3 0  9991
2 50482  87.9243 212.6437 0000925 103.4416 256.6819 13.18684479 64316
ONEWEB-0403             
1 50483U 21132Q   23070.42766938 -.00000474  00000+0 -12341-2 0  9995
2 50483  87.9218 212.6641 0001757  89.6500 270.4833 13.18690146 64261
ONEWEB-0404             
1 50484U 21132R   23070.59202171  .00000408  00000+0  11164-2 0  9995
2 50484  87.8806 258.1799 0002132  75.9736 284.1629 13.11408897 59251
ONEWEB-0405             
1 50485U 21132S   23070.91667824 -.00008222  00000+0 -20891-1 0  9992
2 50485  87.9260 212.5187 0001125  95.1475 219.9067 13.18740181  1304
ONEWEB-0406             
1 50486U 21132T   23070.43189635  .00000132  00000+0  30229-3 0  9997
2 50486  87.9180 212.6520 0001999  90.5451 269.5910 13.18688537 64291
ONEWEB-0407             
1 50487U 21132U   23070.42557839  .00000099  00000+0  21746-3 0  9998
2 50487  87.9151 212.7000 0001519  96.2945 263.8360 13.18688053 64236
ONEWEB-0409             
1 50488U 21132V   23070.58977849  .00000570  00000+0  15711-2 0  9991
2 50488  87.8816 258.1820 0002182  87.3424 272.7954 13.11415200 59145
ONEWEB-0412             
1 50489U 21132W   23070.41503873  .00000116  00000+0  26151-3 0  9993
2 50489  87.9234 212.6540 0001083  79.4074 280.7180 13.18685907 64323
ONEWEB-0413             
1 50490U 21132X   23070.41924053  .00000167  00000+0  39079-3 0  9991
2 50490  87.9154 212.7150 0001186  95.0373 265.0894 13.18690404 64263
ONEWEB-0414             
1 50491U 21132Y   23070.91667824 -.00012933  00000+0 -29836-1 0  9991
2 50491  87.9570 212.6393 0000951 113.1844 109.1472 13.25237065  1302
ONEWEB-0417             
1 50492U 21132Z   23070.41291903  .00000138  00000+0  31741-3 0  9990
2 50492  87.9240 212.6650 0002004  97.5573 262.5787 13.18683961 64278
ONEWEB-0418             
1 50493U 21132AA  23070.91667824 -.00283332  00000+0 -73692+0 0  9993
2 50493  87.9243 212.5132 0001057  92.6877  72.1443 13.19088905  1303
ONEWEB-0419             
1 50494U 21132AB  23070.81972490  .00000182  00000+0  43016-3 0  9990
2 50494  87.9248 212.5489 0001994 109.1484 250.9864 13.18686549 64301
ONEWEB-0420             
1 50495U 21132AC  23070.40661108  .00000082  00000+0  17508-3 0  9993
2 50495  87.9240 212.6439 0001479 118.0662 242.0620 13.18685341 64249
ONEWEB-0421             
1 50496U 21132AD  23070.47615699  .00000092  00000+0  20023-3 0  9992
2 50496  87.9241 212.6377 0001304  83.5611 276.5669 13.18684592 64296
ONEWEB-0424             
1 50497U 21132AE  23070.43610026 -.00000309  00000+0 -81621-3 0  9992
2 50497  87.9242 212.6523 0002004 114.1405 245.9937 13.18685172 64317
ONEWEB-0426             
1 50498U 21132AF  23070.47406552  .00000040  00000+0  69148-4 0  9995
2 50498  87.9239 212.6272 0001661  81.7412 278.3909 13.18686481 64267
ONEWEB-0427             
1 50499U 21132AG  23070.43400143  .00000087  00000+0  18725-3 0  9997
2 50499  87.9246 212.6516 0001992  97.1829 262.9529 13.18684295 64287
ONEWEB-0429             
1 50500U 21132AH  23070.42135897 -.00000097  00000+0 -27832-3 0  9992
2 50500  87.9222 212.6504 0001639 105.3859 254.7454 13.18684144 64250
ONEWEB-0430             
1 50501U 21132AJ  23070.41081350  .00000091  00000+0  19726-3 0  9991
2 50501  87.9196 212.6854 0001677 114.2927 245.8380 13.18688270 64293
ONEWEB-0432             
1 50502U 21132AK  23070.82187905  .00000123  00000+0  27914-3 0  9994
2 50502  87.9243 212.5757 0001225 105.1575 254.9693 13.18686999 64301
ONEWEB-0440             
1 50503U 21132AL  23070.42979670  .00000052  00000+0  98656-4 0  9992
2 50503  87.9249 212.6608 0001061  78.8687 281.2565 13.18687143 65531
ONEWEB-0450             
1 50504U 21132AM  23070.42346125  .00000068  00000+0  13908-3 0  9999
2 50504  87.9251 212.6673 0001251 119.5021 240.6236 13.18689210 64274
ONEWEB-0410             
1 51622U 22012A   23070.49836316 -.00000014  00000+0 -69877-4 0  9992
2 51622  87.9121 243.0019 0002753  69.1400 291.0026 13.17289599 56502
ONEWEB-0411             
1 51623U 22012B   23070.62258666  .00000675  00000+0  18979-2 0  9990
2 51623  87.8714 273.4201 0002141  91.6658 268.4714 13.10377266 52977
ONEWEB-0415             
1 51624U 22012C   23070.61946759  .00000556  00000+0  15568-2 0  9996
2 51624  87.8757 273.4091 0001945 103.8832 256.2512 13.10375749 52978
ONEWEB-0416             
1 51625U 22012D   23070.63036290  .00000645  00000+0  18114-2 0  9998
2 51625  87.8750 273.3964 0001434  94.7473 265.3818 13.10372786 53016
ONEWEB-0422             
1 51626U 22012E   23070.50691850  .00000172  00000+0  41397-3 0  9999
2 51626  87.9084 243.0188 0000649 117.1583 242.9614 13.17167959 56614
ONEWEB-0423             
1 51627U 22012F   23070.50048027 -.00000056  00000+0 -17875-3 0  9999
2 51627  87.9062 242.9612 0001767  92.0549 268.0785 13.17257876 56500
ONEWEB-0425             
1 51628U 22012G   23070.63973351  .00000531  00000+0  14856-2 0  9992
2 51628  87.8747 273.3930 0001547  65.1962 294.9326 13.10368270 53013
ONEWEB-0428             
1 51629U 22012H   23070.62099978  .00000641  00000+0  17989-2 0  9998
2 51629  87.8752 273.4053 0001088 102.2279 257.8970 13.10373142 52972
ONEWEB-0431             
1 51630U 22012J   23070.64905179 -.00000125  00000+0 -39523-3 0  9999
2 51630  87.8733 273.4021 0001843 119.3558 240.7754 13.10372084 53039
ONEWEB-0434             
1 51631U 22012K   23070.64282783  .00000165  00000+0  43747-3 0  9994
2 51631  87.8753 273.4068 0001104  96.2009 263.9244 13.10371505 53013
ONEWEB-0435             
1 51632U 22012L   23070.57581283 -.00000354  00000+0 -10507-2 0  9993
2 51632  87.8743 273.4144 0001039 112.6073 247.5164 13.10371341 52992
ONEWEB-0436             
1 51633U 22012M   23070.49621107 -.00000015  00000+0 -71059-4 0  9990
2 51633  87.9121 242.9966 0001239 100.2166 259.9105 13.17321194 56483
ONEWEB-0438             
1 51634U 22012N   23070.63506083  .00000464  00000+0  12917-2 0  9994
2 51634  87.8749 273.4027 0001613  80.0177 280.1133 13.10373154 53030
ONEWEB-0439             
1 51635U 22012P   23070.63816737  .00000385  00000+0  10664-2 0  9994
2 51635  87.8725 273.4024 0001507  92.6511 267.4789 13.10367812 53012
ONEWEB-0442             
1 51636U 22012Q   23070.56359725  .00000005  00000+0 -19299-4 0  9991
2 51636  87.9091 242.9803 0002600  83.9203 276.2224 13.17444851 56484
ONEWEB-0443             
1 51637U 22012R   23070.50477215 -.00000004  00000+0 -42890-4 0  9994
2 51637  87.9120 242.9840 0000783  95.1143 265.0078 13.17199891 56526
ONEWEB-0444             
1 51638U 22012S   23070.62881639  .00000680  00000+0  19125-2 0  9998
2 51638  87.8753 273.4099 0001237  90.5916 269.5354 13.10371494 53027
ONEWEB-0445             
1 51639U 22012T   23070.65061464 -.00000189  00000+0 -57784-3 0  9998
2 51639  87.8730 273.4189 0002177  87.8252 272.3125 13.10368018 53036
ONEWEB-0446             
1 51640U 22012U   23070.62725741  .00000628  00000+0  17615-2 0  9996
2 51640  87.8752 273.4063 0001785  97.0676 263.0655 13.10372054 53018
ONEWEB-0448             
1 51641U 22012V   23070.63192997  .00000643  00000+0  18057-2 0  9997
2 51641  87.8749 273.4077 0001232  89.1636 270.9633 13.10372902 52985
ONEWEB-0449             
1 51642U 22012W   23070.63661193  .00000416  00000+0  11561-2 0  9998
2 51642  87.8750 273.4050 0001652  80.5298 279.6016 13.10371582 52999
